{
  "links" : {
    "next" : "https://api.nasa.gov/neo/rest/v1/feed?start_date=1998-06-23&end_date=1998-06-23&detailed=true&api_key=t0TVs3DtDT2H8Oy2Zy8m2eVrNsAVKAexjcZXUckd",
    "prev" : "https://api.nasa.gov/neo/rest/v1/feed?start_date=1998-06-21&end_date=1998-06-21&detailed=true&api_key=t0TVs3DtDT2H8Oy2Zy8m2eVrNsAVKAexjcZXUckd",
    "self" : "https://api.nasa.gov/neo/rest/v1/feed?start_date=1998-06-22&end_date=1998-06-22&detailed=true&api_key=t0TVs3DtDT2H8Oy2Zy8m2eVrNsAVKAexjcZXUckd"
  },
  "element_count" : 2,
  "near_earth_objects" : {
    "1998-06-22" : [ {
      "links" : {
        "self" : "https://api.nasa.gov/neo/rest/v1/neo/3553586?api_key=t0TVs3DtDT2H8Oy2Zy8m2eVrNsAVKAexjcZXUckd"
      },
      "neo_reference_id" : "3553586",
      "name" : "(2010 XO56)",
      "nasa_jpl_url" : "http://ssd.jpl.nasa.gov/sbdb.cgi?sstr=3553586",
      "absolute_magnitude_h" : 20.1,
      "estimated_diameter" : {
        "kilometers" : {
          "estimated_diameter_min" : 0.2538370294,
          "estimated_diameter_max" : 0.5675968529
        },
        "meters" : {
          "estimated_diameter_min" : 253.8370293645,
          "estimated_diameter_max" : 567.5968528656
        },
        "miles" : {
          "estimated_diameter_min" : 0.1577269688,
          "estimated_diameter_max" : 0.3526882241
        },
        "feet" : {
          "estimated_diameter_min" : 832.7986794202,
          "estimated_diameter_max" : 1862.1944587557
        }
      },
      "is_potentially_hazardous_asteroid" : false,
      "close_approach_data" : [ {
        "close_approach_date" : "1998-06-22",
        "epoch_date_close_approach" : 898498800000,
        "relative_velocity" : {
          "kilometers_per_second" : "19.8090403129",
          "kilometers_per_hour" : "71312.5451264746",
          "miles_per_hour" : "44310.8422759475"
        },
        "miss_distance" : {
          "astronomical" : "0.1341920635",
          "lunar" : "52.2007141113",
          "kilometers" : "20074848",
          "miles" : "12473932"
        },
        "orbiting_body" : "Earth"
      } ],
      "orbital_data" : {
        "orbit_id" : "25",
        "orbit_determination_date" : "2017-07-22 06:19:37",
        "orbit_uncertainty" : "1",
        "minimum_orbit_intersection" : ".084278",
        "jupiter_tisserand_invariant" : "5.358",
        "epoch_osculation" : "2458000.5",
        "eccentricity" : ".1116198162604516",
        "semi_major_axis" : "1.116879370937557",
        "inclination" : "40.57497959760938",
        "ascending_node_longitude" : "272.8302980545877",
        "orbital_period" : "431.1295899893823",
        "perihelion_distance" : ".9922135007684183",
        "perihelion_argument" : "252.8003837301604",
        "aphelion_distance" : "1.241545241106696",
        "perihelion_time" : "2458202.638459944190",
        "mean_anomaly" : "191.2112012963419",
        "mean_motion" : ".8350157547962922",
        "equinox" : "J2000"
      }
    }, {
      "links" : {
        "self" : "https://api.nasa.gov/neo/rest/v1/neo/3713287?api_key=t0TVs3DtDT2H8Oy2Zy8m2eVrNsAVKAexjcZXUckd"
      },
      "neo_reference_id" : "3713287",
      "name" : "(2015 FD)",
      "nasa_jpl_url" : "http://ssd.jpl.nasa.gov/sbdb.cgi?sstr=3713287",
      "absolute_magnitude_h" : 26.6,
      "estimated_diameter" : {
        "kilometers" : {
          "estimated_diameter_min" : 0.0127219879,
          "estimated_diameter_max" : 0.0284472297
        },
        "meters" : {
          "estimated_diameter_min" : 12.7219878539,
          "estimated_diameter_max" : 28.4472296503
        },
        "miles" : {
          "estimated_diameter_min" : 0.0079050743,
          "estimated_diameter_max" : 0.0176762835
        },
        "feet" : {
          "estimated_diameter_min" : 41.7388066307,
          "estimated_diameter_max" : 93.330808926
        }
      },
      "is_potentially_hazardous_asteroid" : false,
      "close_approach_data" : [ {
        "close_approach_date" : "1998-06-22",
        "epoch_date_close_approach" : 898498800000,
        "relative_velocity" : {
          "kilometers_per_second" : "7.7640117591",
          "kilometers_per_hour" : "27950.4423327029",
          "miles_per_hour" : "17367.3179038953"
        },
        "miss_distance" : {
          "astronomical" : "0.1006676058",
          "lunar" : "39.1596984863",
          "kilometers" : "15059659",
          "miles" : "9357638"
        },
        "orbiting_body" : "Earth"
      } ],
      "orbital_data" : {
        "orbit_id" : "8",
        "orbit_determination_date" : "2017-04-06 08:35:06",
        "orbit_uncertainty" : "6",
        "minimum_orbit_intersection" : ".0141892",
        "jupiter_tisserand_invariant" : "6.585",
        "epoch_osculation" : "2458000.5",
        "eccentricity" : ".2659810585022109",
        "semi_major_axis" : ".8990512479149028",
        "inclination" : "5.591298208824594",
        "ascending_node_longitude" : "356.0648757622465",
        "orbital_period" : "311.3688044638748",
        "perihelion_distance" : ".6599206453467633",
        "perihelion_argument" : "44.75272724801186",
        "aphelion_distance" : "1.138181850483042",
        "perihelion_time" : "2457936.735095277578",
        "mean_anomaly" : "73.72403841032603",
        "mean_motion" : "1.1561851888787",
        "equinox" : "J2000"
      }
    } ]
  }
}